ONEWEB-0033             
1 45142U 20008M   24256.80992581  .00000676  00000+0  19011-2 0  9999
2 45142  87.8984 164.1361 0002032  78.1085 282.0270 13.10374619224082
ONEWEB-0035             
1 45143U 20008N   24256.76509356 -.00000372  00000+0 -11014-2 0  9999
2 45143  87.8985 164.1309 0001880  76.2238 283.9098 13.10371304223800
ONEWEB-0036             
1 45144U 20008P   24256.75514076  .00000091  00000+0  22491-3 0  9992
2 45144  87.8981 164.0864 0001862  63.9373 296.1946 13.10370868224235
ONEWEB-0038             
1 45145U 20008Q   24256.66174350 -.00000768  00000+0 -22024-2 0  9994
2 45145  87.8978 149.0177 0001059  84.1924 275.9325 13.11416493226118
ONEWEB-0039             
1 45146U 20008R   24256.81324749  .00000811  00000+0  22857-2 0  9992
2 45146  87.8986 164.0937 0001647  61.2824 298.8468 13.10373543224035
ONEWEB-0040             
1 45147U 20008S   24256.80660460  .00000586  00000+0  16425-2 0  9998
2 45147  87.8995 164.1022 0001768  72.6255 287.5066 13.10375663223730
ONEWEB-0043             
1 45149U 20008U   24256.80826368  .00000609  00000+0  17069-2 0  9992
2 45149  87.8989 164.1039 0001618  59.3267 300.8019 13.10374883224058
ONEWEB-0044             
1 45150U 20008V   24256.83647499 -.00000062  00000+0 -21398-3 0  9999
2 45150  87.8982 164.0930 0001680  65.3902 294.7400 13.10371096225121
